[{"OBJECT_NAME":"STARLINK-4340","OBJECT_ID":"2022-099AF","EPOCH":"2026-03-09T21:30:59.344416","MEAN_MOTION":15.05648971,"ECCENTRICITY":2.13e-6,"INCLINATION":97.6034,"RA_OF_ASC_NODE":191.4695,"ARG_OF_PERICENTER":120.1148,"MEAN_ANOMALY":240.0081,"EPHEMERIS_TYPE":0,"CLASSIFICATION_TYPE":"U","NORAD_CAT_ID":53494,"ELEMENT_SET_NO":999,"REV_AT_EPOCH":19608,"BSTAR":5.6881355e-5,"MEAN_MOTION_DOT":7.6e-6,"MEAN_MOTION_DDOT":0},{"OBJECT_NAME":"COSMOS 2251 DEB","OBJECT_ID":"1993-036HX","EPOCH":"2026-03-09T21:31:03.673056","MEAN_MOTION":15.04193551,"ECCENTRICITY":0.00046843,"INCLINATION":74.0171,"RA_OF_ASC_NODE":332.1487,"ARG_OF_PERICENTER":332.3762,"MEAN_ANOMALY":27.7177,"EPHEMERIS_TYPE":0,"CLASSIFICATION_TYPE":"U","NORAD_CAT_ID":34036,"ELEMENT_SET_NO":999,"REV_AT_EPOCH":89876,"BSTAR":0.0040391987,"MEAN_MOTION_DOT":0.00056541,"MEAN_MOTION_DDOT":0}]
